IRIDIUM 921 [-]         
1 24873U 97034E   23300.54333920  .00021930  00000+0  82704-3 0  9992
2 24873  86.3904  42.4653 0006501  68.6163 291.5777 15.26918251439400
IRIDIUM 26 [-]          
1 24903U 97043A   23300.23269614  .00000562  00000+0  18653-3 0  9990
2 24903  86.4006   1.9212 0001971  91.9453 268.1969 14.36055676370754
IRIDIUM 22 [-]          
1 24907U 97043E   23300.24820031  .00000546  00000+0  18521-3 0  9997
2 24907  86.4012   4.9639 0002211  91.7663 268.3787 14.34962966370858
DUMMY MASS 1 [-]        
1 24925U 97048A   23300.60280123  .00000717  00000+0  79077-4 0  9998
2 24925  86.3366  51.8631 0009156 102.8222 257.4026 14.85894692416450
DUMMY MASS 2 [-]        
1 24926U 97048B   23300.60167843  .00000715  00000+0  79250-4 0  9993
2 24926  86.3365  53.3659 0009833 111.5768 248.6505 14.85655729416002
IRIDIUM 29 [-]          
1 24944U 97051A   23300.53429162  .00000444  00000+0  14799-3 0  9999
2 24944  86.4003  34.8075 0002340  89.0791 271.0673 14.35418852367368
IRIDIUM 33 [-]          
1 24946U 97051C   23300.27910041  .00000472  00000+0  16152-3 0  9999
2 24946  86.3919  34.1887 0006426 220.3218 139.7502 14.34156973366881
